SatCatId,ObjectName,LaunchYear,OrbitalPeriod,LaunchMass,StatusCode,Inclination,Status,UcsData,OrbitClassEstimated,LaunchSiteCountry,Owner,UseType,Purpose,LaunchVehicleClass,TLE1,TLE2,MeanMotion,Eccentricity,OrbitClass
53397,STARLINK-4515,2022,95.44,260.0,+,53.22,Active,1,LEO,USA,USA,Commercial,Communications,Falcon,1 53397U 22097K   25287.10838873 -.00000590  00000+0 -18951-4 0  9992,2 53397  53.2183  62.1482 0001517  82.7845 277.3320 15.08840240176383,15.0884024,0.0001517,LEO
53398,STARLINK-4512,2022,95.44,260.0,+,53.22,Active,1,LEO,USA,USA,Commercial,Communications,Falcon,1 53398U 22097L   25287.08999280  .00000016  00000+0  19095-4 0  9991,2 53398  53.2167  62.2297 0001399  87.3620 272.7532 15.08836477176382,15.08836477,0.0001399,LEO
53399,STARLINK-4528,2022,95.44,260.0,+,53.22,Active,1,LEO,USA,USA,Commercial,Communications,Falcon,1 53399U 22097M   25287.10102582 -.00000715  00000+0 -26854-4 0  9995,2 53399  53.2151  62.1803 0001027  93.5400 266.5710 15.08843245176381,15.08843245,0.0001027,LEO
53400,STARLINK-4520,2022,95.44,260.0,+,53.22,Active,1,LEO,USA,USA,Commercial,Communications,Falcon,1 53400U 22097N   25287.07894298 -.00003213  00000+0 -18390-3 0  9997,2 53400  53.2150  62.2809 0001287  99.6297 260.4840 15.08840428176386,15.08840428,0.0001287,LEO
53401,STARLINK-4525,2022,95.44,260.0,+,53.22,Active,1,LEO,USA,USA,Commercial,Communications,Falcon,1 53401U 22097P   25287.09366787  .00001617  00000+0  11959-3 0  9995,2 53401  53.2160  62.2126 0000404  70.3515 289.7520 15.08852726176382,15.08852726,4.04e-05,LEO
53402,STARLINK-4499,2022,95.44,260.0,+,53.22,Active,1,LEO,USA,USA,Commercial,Communications,Falcon,1 53402U 22097Q   25287.07526939  .00000084  00000+0  23370-4 0  9999,2 53402  53.2153  62.2941 0001479  88.3980 271.7182 15.08834070176385,15.0883407,0.0001479,LEO
53403,STARLINK-4507,2022,95.44,260.0,+,53.21,Active,1,LEO,USA,USA,Commercial,Communications,Falcon,1 53403U 22097R   25287.12042934 -.00000424  00000+0 -85733-5 0  9996,2 53403  53.2157  62.4412 0001484  93.0392 267.0770 15.08837227176389,15.08837227,0.0001484,LEO
53404,STARLINK-4509,2022,95.44,260.0,+,53.21,Active,1,LEO,USA,USA,Commercial,Communications,Falcon,1 53404U 22097S   25287.05874054 -.00000771  00000+0 -30376-4 0  9992,2 53404  53.2191  52.3021 0001460  82.8189 277.2969 15.08837555176518,15.08837555,0.000146,LEO
53405,STARLINK-4510,2022,95.44,260.0,+,53.22,Active,1,LEO,USA,USA,Commercial,Communications,Falcon,1 53405U 22097T   25287.07158667  .00000763  00000+0  66049-4 0  9995,2 53405  53.2166  62.3110 0001336  90.2491 269.8654 15.08839381176384,15.08839381,0.0001336,LEO
53406,STARLINK-4533,2022,95.44,260.0,+,53.22,Active,1,LEO,USA,USA,Commercial,Communications,Falcon,1 53406U 22097U   25287.04674651 -.00002414  00000+0 -13372-3 0  9996,2 53406  53.2179  52.4222 0001209  80.4940 279.6189 15.08827186176519,15.08827186,0.0001209,LEO
53407,STARLINK-4537,2022,91.53,260.0,P,53.21,Active,1,LEO,USA,USA,Commercial,Communications,Falcon,1 53407U 22097V   25287.73197772  .00602197  00000+0  35447-2 0  9995,2 53407  53.2098  29.8471 0001641  76.9637 283.1567 15.75974141176896,15.75974141,0.0001641,LEO
53408,STARLINK-4491,2022,95.44,260.0,+,53.22,Active,1,LEO,USA,USA,Commercial,Communications,Falcon,1 53408U 22097W   25287.05779048  .00000693  00000+0  61617-4 0  9996,2 53408  53.2174  52.3769 0001287  85.7238 274.3902 15.08837702176515,15.08837702,0.0001287,LEO
53409,STARLINK-4490,2022,95.44,260.0,+,53.22,Active,1,LEO,USA,USA,Commercial,Communications,Falcon,1 53409U 22097X   25287.05137421 -.00000190  00000+0  61675-5 0  9998,2 53409  53.2158  42.5962 0000987  90.2777 269.8329 15.08836929176656,15.08836929,9.87e-05,LEO
53410,STARLINK-4492,2022,95.44,260.0,+,53.22,Active,1,LEO,USA,USA,Commercial,Communications,Falcon,1 53410U 22097Y   25287.31907405  .00000485  00000+0  48598-4 0  9990,2 53410  53.2196  51.2000 0001875  87.0522 273.0685 15.08835550176559,15.0883555,0.0001875,LEO
53411,STARLINK-4497,2022,95.44,260.0,+,53.22,Active,1,LEO,USA,USA,Commercial,Communications,Falcon,1 53411U 22097Z   25287.32643275  .00000211  00000+0  31339-4 0  9996,2 53411  53.2180  51.1687 0001554  83.5129 276.6040 15.08835814176558,15.08835814,0.0001554,LEO
53412,STARLINK-4496,2022,95.44,260.0,+,53.22,Active,1,LEO,USA,USA,Commercial,Communications,Falcon,1 53412U 22097AA  25287.30803240 -.00000767  00000+0 -30127-4 0  9997,2 53412  53.2147  51.2511 0001490  90.3299 269.7864 15.08832600176559,15.088326,0.000149,LEO
53413,STARLINK-4500,2022,95.44,260.0,+,53.22,Active,1,LEO,USA,USA,Commercial,Communications,Falcon,1 53413U 22097AB  25287.05042904  .00000740  00000+0  64578-4 0  9998,2 53413  53.2153  52.4049 0001591  84.7303 275.3871 15.08834104176519,15.08834104,0.0001591,LEO
53414,STARLINK-4304,2022,95.44,260.0,+,53.22,Active,1,LEO,USA,USA,Commercial,Communications,Falcon,1 53414U 22097AC  25286.77442709  .00000684  00000+0  61046-4 0  9998,2 53414  53.2169  53.6455 0001453  95.8566 264.2592 15.08837886176463,15.08837886,0.0001453,LEO
53415,STARLINK-4479,2022,95.44,260.0,+,53.22,Active,1,LEO,USA,USA,Commercial,Communications,Falcon,1 53415U 22097AD  25286.63825975  .00002114  00000+0  15083-3 0  9993,2 53415  53.2188  54.2594 0000911  88.7703 271.3394 15.08853090176428,15.0885309,9.11e-05,LEO
53416,STARLINK-4480,2022,95.44,260.0,+,53.22,Active,1,LEO,USA,USA,Commercial,Communications,Falcon,1 53416U 22097AE  25286.62354165  .00000662  00000+0  59670-4 0  9998,2 53416  53.2148  54.2748 0001822  90.1151 270.0050 15.08837910176420,15.0883791,0.0001822,LEO
53417,STARLINK-4484,2022,95.44,260.0,+,53.22,Active,1,LEO,USA,USA,Commercial,Communications,Falcon,1 53417U 22097AF  25286.63459188 -.00001715  00000+0 -89703-4 0  9993,2 53417  53.2191  54.2765 0000968  91.9303 268.1800 15.08830748176429,15.08830748,9.68e-05,LEO
53418,STARLINK-4481,2022,95.44,260.0,+,53.22,Active,1,LEO,USA,USA,Commercial,Communications,Falcon,1 53418U 22097AG  25287.32361953 -.00000208  00000+0  50318-5 0  9999,2 53418  53.2163  40.7468 0001741  87.6388 272.4804 15.08836504176703,15.08836504,0.0001741,LEO
53419,STARLINK-4476,2022,95.44,260.0,+,53.22,Active,1,LEO,USA,USA,Commercial,Communications,Falcon,1 53419U 22097AH  25286.49842724 -.00014503  00000+0 -89322-3 0  9996,2 53419  53.2162  54.8853 0001246 107.4839 252.6290 15.08910341176407,15.08910341,0.0001246,LEO
53420,STARLINK-4552,2022,95.44,260.0,+,53.22,Active,1,LEO,USA,USA,Commercial,Communications,Falcon,1 53420U 22097AJ  25287.08354067 -.00005195  00000+0 -30834-3 0  9993,2 53420  53.2150  52.2598 0001599  90.9944 269.1232 15.08862081176493,15.08862081,0.0001599,LEO
53421,STARLINK-4545,2022,95.44,260.0,+,53.21,Active,1,LEO,USA,USA,Commercial,Communications,Falcon,1 53421U 22097AK  25287.09091482  .00002179  00000+0  15503-3 0  9997,2 53421  53.2124  52.2273 0002983  88.4796 271.6538 15.08833323176494,15.08833323,0.0002983,LEO
53422,STARLINK-4546,2022,95.44,260.0,+,53.22,Active,1,LEO,USA,USA,Commercial,Communications,Falcon,1 53422U 22097AL  25287.07619010  .00000062  00000+0  21964-4 0  9997,2 53422  53.2195  52.2930 0001444  84.5346 275.5811 15.08835980176513,15.0883598,0.0001444,LEO
53423,STARLINK-4539,2022,95.44,260.0,+,53.22,Active,1,LEO,USA,USA,Commercial,Communications,Falcon,1 53423U 22097AM  25287.08818914 -.00000466  00000+0 -11175-4 0  9996,2 53423  53.2172  52.2497 0001688  83.1465 276.9719 15.08838376176495,15.08838376,0.0001688,LEO
53424,STARLINK-4532,2022,95.44,260.0,+,53.22,Active,1,LEO,USA,USA,Commercial,Communications,Falcon,1 53424U 22097AN  25287.06883069 -.00000576  00000+0 -18082-4 0  9994,2 53424  53.2190  52.3243 0001380  90.2686 269.8465 15.08840535176511,15.08840535,0.000138,LEO
53425,STARLINK-4531,2022,95.44,260.0,+,53.22,Active,1,LEO,USA,USA,Commercial,Communications,Falcon,1 53425U 22097AP  25287.07986332 -.00000634  00000+0 -21719-4 0  9999,2 53425  53.2178  52.2770 0001061  87.4923 272.6191 15.08847430176485,15.0884743,0.0001061,LEO
53426,STARLINK-4558,2022,95.44,260.0,+,53.22,Active,1,LEO,USA,USA,Commercial,Communications,Falcon,1 53426U 22097AQ  25287.31265232 -.00000031  00000+0  16140-4 0  9998,2 53426  53.2182  41.3870 0001777  82.5008 277.6186 15.08838342176688,15.08838342,0.0001777,LEO
53429,STARLINK-4543,2022,95.44,260.0,+,53.22,Active,1,LEO,USA,USA,Commercial,Communications,Falcon,1 53429U 22097AT  25287.30896781  .00000538  00000+0  51859-4 0  9996,2 53429  53.2155  41.3629 0000949  86.7880 273.3221 15.08844416176689,15.08844416,9.49e-05,LEO
53430,STARLINK-4538,2022,95.44,260.0,+,53.22,Active,1,LEO,USA,USA,Commercial,Communications,Falcon,1 53430U 22097AU  25287.03663230 -.00000406  00000+0 -74346-5 0  9992,2 53430  53.2171  42.5074 0001702  83.0685 277.0501 15.08846551176625,15.08846551,0.0001702,LEO
53431,STARLINK-4548,2022,95.44,260.0,+,53.22,Active,1,LEO,USA,USA,Commercial,Communications,Falcon,1 53431U 22097AV  25286.59865647  .00000588  00000+0  55028-4 0  9993,2 53431  53.2170  44.0523 0001244  85.4315 274.6819 15.08843093176586,15.08843093,0.0001244,LEO
53432,STARLINK-4557,2022,95.44,260.0,+,53.22,Active,1,LEO,USA,USA,Commercial,Communications,Falcon,1 53432U 22097AW  25286.61339375 -.00000150  00000+0  86446-5 0  9996,2 53432  53.2173  44.1325 0001476  95.5905 264.5256 15.08842581176589,15.08842581,0.0001476,LEO
53433,STARLINK-4549,2022,95.44,260.0,+,53.22,Active,1,LEO,USA,USA,Commercial,Communications,Falcon,1 53433U 22097AX  25287.03293439 -.00005178  00000+0 -30719-3 0  9990,2 53433  53.2200  42.4830 0000766  80.8941 279.2137 15.08872687176627,15.08872687,7.66e-05,LEO
53434,STARLINK-4498,2022,95.44,260.0,+,53.22,Active,1,LEO,USA,USA,Commercial,Communications,Falcon,1 53434U 22097AY  25286.60971457  .00001542  00000+0  11493-3 0  9993,2 53434  53.2156  44.1083 0001307  90.7852 269.3290 15.08838682176593,15.08838682,0.0001307,LEO
